{
  "type": "FeatureCollection",
  "features": [
    {
      "type": "Feature",
      "properties": {
        "norad_id": 34556,
        "name": "COSMOS 2251 DEB",
        "group": "cosmos-2251-debris",
        "lat": -27.2416241771301,
        "lon": -53.38393012240755,
        "alt_km": 636.8216597275559,
        "timestamp": "2025-12-16T03:53:27.449824+00:00",
        "meta_object_name": "COSMOS 2251 DEB",
        "meta_object_id": "1993-036US",
        "meta_epoch": "2025-12-14T19:02:32.443584",
        "meta_mean_motion": 14.77886348,
        "meta_eccentricity": 0.00074336,
        "meta_inclination": 74.0152,
        "meta_ra_of_asc_node": 120.8185,
        "meta_arg_of_pericenter": 180.6592,
        "meta_mean_anomaly": 308.5883,
        "meta_ephemeris_type": 0,
        "meta_classification_type": "U",
        "meta_norad_cat_id": 34556,
        "meta_element_set_no": 999,
        "meta_rev_at_epoch": 88359,
        "meta_bstar": 0.0020101225,
        "meta_mean_motion_dot": 0.00014472,
        "meta_mean_motion_ddot": 0,
        "tle_line1": "1 34556U 93036US  25348.79343106  .00014472  00000+0  20101-2 0  9992",
        "tle_line2": "2 34556  74.0152 120.8185 0007433 180.6592 308.5883 14.77886348883591"
      },
      "geometry": {
        "type": "Point",
        "coordinates": [
          -53.38393012240755,
          -27.2416241771301
        ]
      }
    },
    {
      "type": "Feature",
      "properties": {
        "norad_id": 34560,
        "name": "COSMOS 2251 DEB",
        "group": "cosmos-2251-debris",
        "lat": 30.37753118770061,
        "lon": 145.1390379992586,
        "alt_km": 662.1883502158198,
        "timestamp": "2025-12-16T03:53:27.449834+00:00",
        "meta_object_name": "COSMOS 2251 DEB",
        "meta_object_id": "1993-036UW",
        "meta_epoch": "2025-12-14T21:19:38.312832",
        "meta_mean_motion": 14.72205993,
        "meta_eccentricity": 0.00144983,
        "meta_inclination": 74.0152,
        "meta_ra_of_asc_node": 137.9458,
        "meta_arg_of_pericenter": 219.6079,
        "meta_mean_anomaly": 265.5618,
        "meta_ephemeris_type": 0,
        "meta_classification_type": "U",
        "meta_norad_cat_id": 34560,
        "meta_element_set_no": 999,
        "meta_rev_at_epoch": 88283,
        "meta_bstar": 0.0014482696,
        "meta_mean_motion_dot": 9.13e-05,
        "meta_mean_motion_ddot": 0,
        "tle_line1": "1 34560U 93036UW  25348.88863788  .00009130  00000+0  14483-2 0  9991",
        "tle_line2": "2 34560  74.0152 137.9458 0014498 219.6079 265.5618 14.72205993882830"
      },
      "geometry": {
        "type": "Point",
        "coordinates": [
          145.1390379992586,
          30.37753118770061
        ]
      }
    },
    {
      "type": "Feature",
      "properties": {
        "norad_id": 34563,
        "name": "COSMOS 2251 DEB",
        "group": "cosmos-2251-debris",
        "lat": -19.92399889237691,
        "lon": 23.274442142990186,
        "alt_km": 741.8652925099059,
        "timestamp": "2025-12-16T03:53:27.449845+00:00",
        "meta_object_name": "COSMOS 2251 DEB",
        "meta_object_id": "1993-036UZ",
        "meta_epoch": "2025-12-14T16:24:41.264352",
        "meta_mean_motion": 14.46517582,
        "meta_eccentricity": 0.00138778,
        "meta_inclination": 74.0378,
        "meta_ra_of_asc_node": 200.0786,
        "meta_arg_of_pericenter": 293.9754,
        "meta_mean_anomaly": 131.688,
        "meta_ephemeris_type": 0,
        "meta_classification_type": "U",
        "meta_norad_cat_id": 34563,
        "meta_element_set_no": 999,
        "meta_rev_at_epoch": 88225,
        "meta_bstar": 0.00045824323,
        "meta_mean_motion_dot": 1.625e-05,
        "meta_mean_motion_ddot": 0,
        "tle_line1": "1 34563U 93036UZ  25348.68381093  .00001625  00000+0  45824-3 0  9991",
        "tle_line2": "2 34563  74.0378 200.0786 0013877 293.9754 131.6880 14.46517582882255"
      },
      "geometry": {
        "type": "Point",
        "coordinates": [
          23.274442142990186,
          -19.92399889237691
        ]
      }
    },
    {
      "type": "Feature",
      "properties": {
        "norad_id": 34564,
        "name": "COSMOS 2251 DEB",
        "group": "cosmos-2251-debris",
        "lat": -73.87554736590184,
        "lon": 133.74442360371552,
        "alt_km": 757.8612529003249,
        "timestamp": "2025-12-16T03:53:27.449855+00:00",
        "meta_object_name": "COSMOS 2251 DEB",
        "meta_object_id": "1993-036VA",
        "meta_epoch": "2025-12-15T04:03:33.176736",
        "meta_mean_motion": 14.40694512,
        "meta_eccentricity": 0.00191224,
        "meta_inclination": 74.0319,
        "meta_ra_of_asc_node": 233.5171,
        "meta_arg_of_pericenter": 337.1183,
        "meta_mean_anomaly": 182.8187,
        "meta_ephemeris_type": 0,
        "meta_classification_type": "U",
        "meta_norad_cat_id": 34564,
        "meta_element_set_no": 999,
        "meta_rev_at_epoch": 88041,
        "meta_bstar": 0.00026161807,
        "meta_mean_motion_dot": 8.11e-06,
        "meta_mean_motion_ddot": 0,
        "tle_line1": "1 34564U 93036VA  25349.16913399  .00000811  00000+0  26162-3 0  9996",
        "tle_line2": "2 34564  74.0319 233.5171 0019122 337.1183 182.8187 14.40694512880413"
      },
      "geometry": {
        "type": "Point",
        "coordinates": [
          133.74442360371552,
          -73.87554736590184
        ]
      }
    },
    {
      "type": "Feature",
      "properties": {
        "norad_id": 34567,
        "name": "COSMOS 2251 DEB",
        "group": "cosmos-2251-debris",
        "lat": 66.1021668049799,
        "lon": -69.6074496548302,
        "alt_km": 828.2194173354155,
        "timestamp": "2025-12-16T03:53:27.449865+00:00",
        "meta_object_name": "COSMOS 2251 DEB",
        "meta_object_id": "1993-036VD",
        "meta_epoch": "2025-12-15T04:19:10.081056",
        "meta_mean_motion": 14.24019103,
        "meta_eccentricity": 0.0074379,
        "meta_inclination": 74.0403,
        "meta_ra_of_asc_node": 152.3883,
        "meta_arg_of_pericenter": 226.1109,
        "meta_mean_anomaly": 249.7037,
        "meta_ephemeris_type": 0,
        "meta_classification_type": "U",
        "meta_norad_cat_id": 34567,
        "meta_element_set_no": 999,
        "meta_rev_at_epoch": 87159,
        "meta_bstar": 0.00023759775,
        "meta_mean_motion_dot": 5.36e-06,
        "meta_mean_motion_ddot": 0,
        "tle_line1": "1 34567U 93036VD  25349.17997779  .00000536  00000+0  23760-3 0  9999",
        "tle_line2": "2 34567  74.0403 152.3883 0074379 226.1109 249.7037 14.24019103871593"
      },
      "geometry": {
        "type": "Point",
        "coordinates": [
          -69.6074496548302,
          66.1021668049799
        ]
      }
    },
    {
      "type": "Feature",
      "properties": {
        "norad_id": 34569,
        "name": "COSMOS 2251 DEB",
        "group": "cosmos-2251-debris",
        "lat": -69.90028744680113,
        "lon": 140.26174732026024,
        "alt_km": 828.714590368656,
        "timestamp": "2025-12-16T03:53:27.449875+00:00",
        "meta_object_name": "COSMOS 2251 DEB",
        "meta_object_id": "1993-036VF",
        "meta_epoch": "2025-12-15T07:10:48.733824",
        "meta_mean_motion": 14.24759134,
        "meta_eccentricity": 0.01574235,
        "meta_inclination": 73.9894,
        "meta_ra_of_asc_node": 193.5082,
        "meta_arg_of_pericenter": 21.3179,
        "meta_mean_anomaly": 158.3794,
        "meta_ephemeris_type": 0,
        "meta_classification_type": "U",
        "meta_norad_cat_id": 34569,
        "meta_element_set_no": 999,
        "meta_rev_at_epoch": 87004,
        "meta_bstar": 0.00049960451,
        "meta_mean_motion_dot": 1.298e-05,
        "meta_mean_motion_ddot": 0,
        "tle_line1": "1 34569U 93036VF  25349.29917516  .00001298  00000+0  49960-3 0  9991",
        "tle_line2": "2 34569  73.9894 193.5082 0157423  21.3179 158.3794 14.24759134870048"
      },
      "geometry": {
        "type": "Point",
        "coordinates": [
          140.26174732026024,
          -69.90028744680113
        ]
      }
    },
    {
      "type": "Feature",
      "properties": {
        "norad_id": 34570,
        "name": "COSMOS 2251 DEB",
        "group": "cosmos-2251-debris",
        "lat": -73.82760768191008,
        "lon": 115.16589001366559,
        "alt_km": 1038.9478228985909,
        "timestamp": "2025-12-16T03:53:27.449886+00:00",
        "meta_object_name": "COSMOS 2251 DEB",
        "meta_object_id": "1993-036VG",
        "meta_epoch": "2025-12-15T01:35:48.543648",
        "meta_mean_motion": 13.99823242,
        "meta_eccentricity": 0.01902617,
        "meta_inclination": 73.9569,
        "meta_ra_of_asc_node": 214.2362,
        "meta_arg_of_pericenter": 96.2089,
        "meta_mean_anomaly": 52.6208,
        "meta_ephemeris_type": 0,
        "meta_classification_type": "U",
        "meta_norad_cat_id": 34570,
        "meta_element_set_no": 999,
        "meta_rev_at_epoch": 85633,
        "meta_bstar": 0.00050503358,
        "meta_mean_motion_dot": 8.43e-06,
        "meta_mean_motion_ddot": 0,
        "tle_line1": "1 34570U 93036VG  25349.06653407  .00000843  00000+0  50503-3 0  9994",
        "tle_line2": "2 34570  73.9569 214.2362 0190261  96.2089  52.6208 13.99823242856334"
      },
      "geometry": {
        "type": "Point",
        "coordinates": [
          115.16589001366559,
          -73.82760768191008
        ]
      }
    }
  ]
}